IRIDIUM 26              
1 24903U 97043A   25174.80060932  .00000286  00000+0  89562-4 0  9997
2 24903  86.3958 107.8451 0002450  83.6419 276.5058 14.37150338457696
IRIDIUM 22              
1 24907U 97043E   25175.57210181  .00000253  00000+0  80315-4 0  9990
2 24907  86.3964 111.0668 0002263  83.6437 276.5018 14.35962634457825
DUMMY MASS 1            
1 24925U 97048A   25174.87748862  .00000291  00000+0  29284-4 0  9999
2 24925  86.3356 132.2367 0008796 114.1854 246.0291 14.86990885506129
DUMMY MASS 2            
1 24926U 97048B   25175.31188829  .00000299  00000+0  30408-4 0  9999
2 24926  86.3357 133.6440 0009356 122.8893 237.3233 14.86743318506205
IRIDIUM 29              
1 24944U 97051A   25174.61718430  .00000312  00000+0  99689-4 0  9994
2 24944  86.3972 141.2013 0002089  88.2123 271.9313 14.36472705454193
IRIDIUM 33              
1 24946U 97051C   25174.60605987  .00000231  00000+0  74272-4 0  9998
2 24946  86.3888 140.4667 0009891  64.3154 295.9063 14.34896165453672
IRIDIUM 28              
1 24948U 97051E   25174.65647310  .00000262  00000+0  81108-4 0  9991
2 24948  86.3977 138.6979 0002769  83.1742 276.9770 14.37390196454779
IRIDIUM 36              
1 24967U 97056C   25175.52366116  .00000305  00000+0  95141-4 0  9996
2 24967  86.3988 169.9175 0002316  82.1023 278.0438 14.37614824453271
